{"type": "FeatureCollection", "features": [ {"type": "Feature", "properties": {"norad_id": 66653, "name": "2025-274D", "group": "last-30-days", "lat": -21.968019972854144, "lon": 86.29079454970383, "alt_km": 594.7854539780783, "timestamp": "2025-12-08T03:50:05.785076+00:00", "meta": {"OBJECT_NAME": "2025-274D", "OBJECT_ID": "2025-274D", "EPOCH": "2025-12-07T06:00:16.278624", "MEAN_MOTION": 14.91863249, "ECCENTRICITY": 0.00112528, "INCLINATION": 97.7389, "RA_OF_ASC_NODE": 268.5423, "ARG_OF_PERICENTER": 274.8482, "MEAN_ANOMALY": 85.1452, "EPHEMERIS_TYPE": 0, "CLASSIFICATION_TYPE": "U", "NORAD_CAT_ID": 66653, "ELEMENT_SET_NO": 999, "REV_AT_EPOCH": 158, "BSTAR": 0.00034972853, "MEAN_MOTION_DOT": 3.481e-05, "MEAN_MOTION_DDOT": 0}, "tle": {"line1": "1 66653U 25274D   25341.25018841  .00003481  00000+0  34973-3 0  9994", "line2": "2 66653  97.7389 268.5423 0011252 274.8482  85.1452 14.91863249  1583"}}, "geometry": {"type": "Point", "coordinates": [86.29079454970383, -21.968019972854144]}}, {"type": "Feature", "properties": {"norad_id": 66654, "name": "JACK E", "group": "last-30-days", "lat": -28.688601458658503, "lon": 85.17096837337783, "alt_km": 593.9042676603276, "timestamp": "2025-12-08T03:50:05.785086+00:00", "meta": {"OBJECT_NAME": "JACK E", "OBJECT_ID": "2025-274E", "EPOCH": "2025-12-07T05:58:35.799744", "MEAN_MOTION": 14.92035822, "ECCENTRICITY": 0.00118163, "INCLINATION": 97.7392, "RA_OF_ASC_NODE": 268.5444, "ARG_OF_PERICENTER": 276.2797, "MEAN_ANOMALY": 83.7076, "EPHEMERIS_TYPE": 0, "CLASSIFICATION_TYPE": "U", "NORAD_CAT_ID": 66654, "ELEMENT_SET_NO": 999, "REV_AT_EPOCH": 158, "BSTAR": 0.00041807199, "MEAN_MOTION_DOT": 4.191e-05, "MEAN_MOTION_DDOT": 0}, "tle": {"line1": "1 66654U 25274E   25341.24902546  .00004191  00000+0  41807-3 0  9991", "line2": "2 66654  97.7392 268.5444 0011816 276.2797  83.7076 14.92035822  1587"}}, "geometry": {"type": "Point", "coordinates": [85.17096837337783, -28.688601458658503]}}, {"type": "Feature", "properties": {"norad_id": 66655, "name": "2025-274F", "group": "last-30-days", "lat": -37.23258689352525, "lon": 83.51238417102785, "alt_km": 597.2414649856219, "timestamp": "2025-12-08T03:50:05.785096+00:00", "meta": {"OBJECT_NAME": "2025-274F", "OBJECT_ID": "2025-274F", "EPOCH": "2025-12-07T01:07:02.048736", "MEAN_MOTION": 14.92434486, "ECCENTRICITY": 0.00066721, "INCLINATION": 97.7352, "RA_OF_ASC_NODE": 268.3478, "ARG_OF_PERICENTER": 318.5674, "MEAN_ANOMALY": 41.5038, "EPHEMERIS_TYPE": 0, "CLASSIFICATION_TYPE": "U", "NORAD_CAT_ID": 66655, "ELEMENT_SET_NO": 999, "REV_AT_EPOCH": 155, "BSTAR": 0.0015601248, "MEAN_MOTION_DOT": 0.00015966, "MEAN_MOTION_DDOT": 0}, "tle": {"line1": "1 66655U 25274F   25341.04655149  .00015966  00000+0  15601-2 0  9998", "line2": "2 66655  97.7352 268.3478 0006672 318.5674  41.5038 14.92434486  1553"}}, "geometry": {"type": "Point", "coordinates": [83.51238417102785, -37.23258689352525]}}, {"type": "Feature", "properties": {"norad_id": 66656, "name": "2025-274G", "group": "last-30-days", "lat": -36.09240958956511, "lon": 83.75161521849702, "alt_km": 592.8403357452808, "timestamp": "2025-12-08T03:50:05.785109+00:00", "meta": {"OBJECT_NAME": "2025-274G", "OBJECT_ID": "2025-274G", "EPOCH": "2025-12-06T18:40:49.621440", "MEAN_MOTION": 14.92219802, "ECCENTRICITY": 0.00124648, "INCLINATION": 97.7391, "RA_OF_ASC_NODE": 268.0842, "ARG_OF_PERICENTER": 279.917, "MEAN_ANOMALY": 80.0642, "EPHEMERIS_TYPE": 0, "CLASSIFICATION_TYPE": "U", "NORAD_CAT_ID": 66656, "ELEMENT_SET_NO": 999, "REV_AT_EPOCH": 151, "BSTAR": 0.00049696804, "MEAN_MOTION_DOT": 5.017e-05, "MEAN_MOTION_DDOT": 0}, "tle": {"line1": "1 66656U 25274G   25340.77835210  .00005017  00000+0  49697-3 0  9996", "line2": "2 66656  97.7391 268.0842 0012464 279.9170  80.0642 14.92219802  1514"}}, "geometry": {"type": "Point", "coordinates": [83.75161521849702, -36.09240958956511]}}, {"type": "Feature", "properties": {"norad_id": 66657, "name": "SPIRONE", "group": "last-30-days", "lat": -43.350026016178184, "lon": 82.06847685091518, "alt_km": 594.5318664130191, "timestamp": "2025-12-08T03:50:05.785119+00:00", "meta": {"OBJECT_NAME": "SPIRONE", "OBJECT_ID": "2025-274H", "EPOCH": "2025-12-07T05:54:55.980000", "MEAN_MOTION": 14.92402984, "ECCENTRICITY": 0.00109914, "INCLINATION": 97.7389, "RA_OF_ASC_NODE": 268.5467, "ARG_OF_PERICENTER": 297.1629, "MEAN_ANOMALY": 62.8469, "EPHEMERIS_TYPE": 0, "CLASSIFICATION_TYPE": "U", "NORAD_CAT_ID": 66657, "ELEMENT_SET_NO": 999, "REV_AT_EPOCH": 158, "BSTAR": 0.00045516901, "MEAN_MOTION_DOT": 4.61e-05, "MEAN_MOTION_DDOT": 0}, "tle": {"line1": "1 66657U 25274H   25341.24648125  .00004610  00000+0  45517-3 0  9992", "line2": "2 66657  97.7389 268.5467 0010991 297.1629  62.8469 14.92402984  1581"}}, "geometry": {"type": "Point", "coordinates": [82.06847685091518, -43.350026016178184]}}, {"type": "Feature", "properties": {"norad_id": 66658, "name": "2025-274J", "group": "last-30-days", "lat": -50.41558416486011, "lon": 79.98036946985623, "alt_km": 593.5760481665611, "timestamp": "2025-12-08T03:50:05.785136+00:00", "meta": {"OBJECT_NAME": "2025-274J", "OBJECT_ID": "2025-274J", "EPOCH": "2025-12-07T01:03:32.166720", "MEAN_MOTION": 14.92574092, "ECCENTRICITY": 0.00115541, "INCLINATION": 97.7391, "RA_OF_ASC_NODE": 268.3507, "ARG_OF_PERICENTER": 300.9885, "MEAN_ANOMALY": 59.0198, "EPHEMERIS_TYPE": 0, "CLASSIFICATION_TYPE": "U", "NORAD_CAT_ID": 66658, "ELEMENT_SET_NO": 999, "REV_AT_EPOCH": 155, "BSTAR": 0.00042181328, "MEAN_MOTION_DOT": 4.287e-05, "MEAN_MOTION_DDOT": 0}, "tle": {"line1": "1 66658U 25274J   25341.04412230  .00004287  00000+0  42181-3 0  9991", "line2": "2 66658  97.7391 268.3507 0011554 300.9885  59.0198 14.92574092  1555"}}, "geometry": {"type": "Point", "coordinates": [79.98036946985623, -50.41558416486011]}}, {"type": "Feature", "properties": {"norad_id": 66659, "name": "JACK K", "group": "last-30-days", "lat": -57.86440074255649, "lon": 76.94762872831788, "alt_km": 592.0761524643613, "timestamp": "2025-12-08T03:50:05.785146+00:00", "meta": {"OBJECT_NAME": "JACK K", "OBJECT_ID": "2025-274K", "EPOCH": "2025-12-07T04:14:43.714176", "MEAN_MOTION": 14.9276137, "ECCENTRICITY": 0.00122748, "INCLINATION": 97.7392, "RA_OF_ASC_NODE": 268.4845, "ARG_OF_PERICENTER": 301.4401, "MEAN_ANOMALY": 58.5618, "EPHEMERIS_TYPE": 0, "CLASSIFICATION_TYPE": "U", "NORAD_CAT_ID": 66659, "ELEMENT_SET_NO": 999, "REV_AT_EPOCH": 157, "BSTAR": 0.0004252897, "MEAN_MOTION_DOT": 4.344e-05, "MEAN_MOTION_DDOT": 0}, "tle": {"line1": "1 66659U 25274K   25341.17689484  .00004344  00000+0  42529-3 0  9993", "line2": "2 66659  97.7392 268.4845 0012274 301.4401  58.5618 14.92761370  1573"}}, "geometry": {"type": "Point", "coordinates": [76.94762872831788, -57.86440074255649]}}, {"type": "Feature", "properties": {"norad_id": 66660, "name": "K-HERO", "group": "last-30-days", "lat": -63.7737791391623, "lon": 73.4280543418437, "alt_km": 590.7661166027583, "timestamp": "2025-12-08T03:50:05.785158+00:00", "meta": {"OBJECT_NAME": "K-HERO", "OBJECT_ID": "2025-274L", "EPOCH": "2025-12-07T01:00:11.088000", "MEAN_MOTION": 14.92908997, "ECCENTRICITY": 0.0012933, "INCLINATION": 97.7396, "RA_OF_ASC_NODE": 268.3545, "ARG_OF_PERICENTER": 302.6288, "MEAN_ANOMALY": 57.3682, "EPHEMERIS_TYPE": 0, "CLASSIFICATION_TYPE": "U", "NORAD_CAT_ID": 66660, "ELEMENT_SET_NO": 999, "REV_AT_EPOCH": 155, "BSTAR": 0.00042987493, "MEAN_MOTION_DOT": 4.409e-05, "MEAN_MOTION_DDOT": 0}, "tle": {"line1": "1 66660U 25274L   25341.04179500  .00004409  00000+0  42987-3 0  9994", "line2": "2 66660  97.7396 268.3545 0012933 302.6288  57.3682 14.92908997  1557"}}, "geometry": {"type": "Point", "coordinates": [73.4280543418437, -63.7737791391623]}}, {"type": "Feature", "properties": {"norad_id": 66661, "name": "SNUGLITE-III", "group": "last-30-days", "lat": -69.67957796802882, "lon": 67.91008726600126, "alt_km": 589.4537809728572, "timestamp": "2025-12-08T03:50:05.785171+00:00", "meta": {"OBJECT_NAME": "SNUGLITE-III", "OBJECT_ID": "2025-274M", "EPOCH": "2025-12-06T18:32:37.955328", "MEAN_MOTION": 14.93056475, "ECCENTRICITY": 0.00135238, "INCLINATION": 97.7395, "RA_OF_ASC_NODE": 268.0919, "ARG_OF_PERICENTER": 304.5866, "MEAN_ANOMALY": 55.4077, "EPHEMERIS_TYPE": 0, "CLASSIFICATION_TYPE": "U", "NORAD_CAT_ID": 66661, "ELEMENT_SET_NO": 999, "REV_AT_EPOCH": 151, "BSTAR": 0.00043653793, "MEAN_MOTION_DOT": 4.496e-05, "MEAN_MOTION_DDOT": 0}, "tle": {"line1": "1 66661U 25274M   25340.77266152  .00004496  00000+0  43654-3 0  9992", "line2": "2 66661  97.7395 268.0919 0013523 304.5866  55.4077 14.93056475  1517"}}, "geometry": {"type": "Point", "coordinates": [67.91008726600126, -69.67957796802882]}}, {"type": "Feature", "properties": {"norad_id": 66662, "name": "2025-274N", "group": "last-30-days", "lat": -71.97745443749145, "lon": 64.74970419833869, "alt_km": 588.705741620457, "timestamp": "2025-12-08T03:50:05.785181+00:00", "meta": {"OBJECT_NAME": "2025-274N", "OBJECT_ID": "2025-274N", "EPOCH": "2025-12-06T18:32:00.890592", "MEAN_MOTION": 14.93103897, "ECCENTRICITY": 0.00140226, "INCLINATION": 97.7392, "RA_OF_ASC_NODE": 268.0924, "ARG_OF_PERICENTER": 303.873, "MEAN_ANOMALY": 56.1155, "EPHEMERIS_TYPE": 0, "CLASSIFICATION_TYPE": "U", "NORAD_CAT_ID": 66662, "ELEMENT_SET_NO": 999, "REV_AT_EPOCH": 151, "BSTAR": 0.00028819991, "MEAN_MOTION_DOT": 2.952e-05, "MEAN_MOTION_DDOT": 0}, "tle": {"line1": "1 66662U 25274N   25340.77223253  .00002952  00000+0  28820-3 0  9991", "line2": "2 66662  97.7392 268.0924 0014022 303.8730  56.1155 14.93103897  1514"}}, "geometry": {"type": "Point", "coordinates": [64.74970419833869, -71.97745443749145]}}]}